{
    "links": {
        "self": "http://www.neowsapp.com/rest/v1/neo/3740046?api_key=iIulBulltgU6a56xZRHN4H3l9WmuAYTsLGpBGhQ2"
    },
    "id": "3740046",
    "neo_reference_id": "3740046",
    "name": "(2016 AL165)",
    "designation": "2016 AL165",
    "nasa_jpl_url": "http://ssd.jpl.nasa.gov/sbdb.cgi?sstr=3740046",
    "absolute_magnitude_h": 24.9,
    "estimated_diameter": {
        "kilometers": {
            "estimated_diameter_min": 0.0278326768,
            "estimated_diameter_max": 0.0622357573
        },
        "meters": {
            "estimated_diameter_min": 27.8326768072,
            "estimated_diameter_max": 62.2357573367
        },
        "miles": {
            "estimated_diameter_min": 0.0172944182,
            "estimated_diameter_max": 0.0386714948
        },
        "feet": {
            "estimated_diameter_min": 91.3145593761,
            "estimated_diameter_max": 204.1855621004
        }
    },
    "is_potentially_hazardous_asteroid": false,
    "close_approach_data": [
        {
            "close_approach_date": "2005-01-03",
            "close_approach_date_full": "2005-Jan-03 18:07",
            "epoch_date_close_approach": 1104775620000,
            "relative_velocity": {
                "kilometers_per_second": "8.0613407555",
                "kilometers_per_hour": "29020.8267199221",
                "miles_per_hour": "18032.4131360538"
            },
            "miss_distance": {
                "astronomical": "0.1848555789",
                "lunar": "71.9088201921",
                "kilometers": "27654000.861056943",
                "miles": "17183399.3302460934"
            },
            "orbiting_body": "Earth"
        },
        {
            "close_approach_date": "2016-01-08",
            "close_approach_date_full": "2016-Jan-08 11:05",
            "epoch_date_close_approach": 1452251100000,
            "relative_velocity": {
                "kilometers_per_second": "6.4133998662",
                "kilometers_per_hour": "23088.2395181679",
                "miles_per_hour": "14346.1341606083"
            },
            "miss_distance": {
                "astronomical": "0.1124568284",
                "lunar": "43.7457062476",
                "kilometers": "16823301.995595508",
                "miles": "10453515.1241256904"
            },
            "orbiting_body": "Earth"
        }
    ],
    "orbital_data": {
        "orbit_id": "6",
        "orbit_determination_date": "2017-04-06 08:29:09",
        "first_observation_date": "2016-01-13",
        "last_observation_date": "2016-02-05",
        "data_arc_in_days": 23,
        "observations_used": 38,
        "orbit_uncertainty": "7",
        "minimum_orbit_intersection": ".108645",
        "jupiter_tisserand_invariant": "4.833",
        "epoch_osculation": "2459000.5",
        "eccentricity": ".2014599096491203",
        "semi_major_axis": "1.349056650727943",
        "inclination": "11.80354954576569",
        "ascending_node_longitude": "114.4470407320329",
        "orbital_period": "572.3263058334177",
        "perihelion_distance": "1.077275819760747",
        "perihelion_argument": "332.4686819067795",
        "aphelion_distance": "1.620837481695139",
        "perihelion_time": "2459090.318795553077",
        "mean_anomaly": "303.5029177070201",
        "mean_motion": ".6290118003151549",
        "equinox": "J2000",
        "orbit_class": {
            "orbit_class_type": "AMO",
            "orbit_class_description": "Near-Earth asteroid orbits similar to that of 1221 Amor",
            "orbit_class_range": "1.017 AU < q (perihelion) < 1.3 AU"
        }
    },
    "is_sentry_object": false
}